STARLINK-36197          
1 67205U 25304P   26013.16672453 -.01698248  00000+0 -39135-1 0  9991
2 67205  69.9998 319.5501 0002694 280.0610 318.3684 15.45793041  5483
STARLINK-36056          
1 67206U 25304Q   26013.12070370 -.00249679  00000+0 -42501-2 0  9999
2 67206  70.0002 319.6567 0003555 278.5296  81.5488 15.52083274  5406
STARLINK-36225          
1 67207U 25304R   26013.12028955  .00039191  00000+0  63610-3 0  9991
2 67207  70.0003 319.6551 0003494 272.4180  87.6607 15.52540787  5438
STARLINK-36265          
1 67208U 25304S   26013.15351590  .00026555  00000+0  60749-3 0  9999
2 67208  70.0000 319.7764 0003437 270.7586  89.3202 15.42720513  5437
STARLINK-36226          
1 67209U 25304T   26013.14540499  .00034038  00000+0  77654-3 0  9995
2 67209  69.9999 319.7467 0003463 269.1947  90.8838 15.42737375  5430
STARLINK-36173          
1 67210U 25304U   26013.16672453  .00050511  00000+0  11496-2 0  9990
2 67210  70.0002 319.6362 0002478 279.1247 245.3036 15.42705206  5516
STARLINK-36280          
1 67211U 25304V   26013.16672453  .00060328  00000+0  13708-2 0  9996
2 67211  70.0001 319.6115 0002801 266.5087 279.9060 15.42701749  5512
STARLINK-36213          
1 67212U 25304W   26013.16672453  .00050467  00000+0  11490-2 0  9996
2 67212  69.9999 319.5858 0002985 270.0523 298.3964 15.42693004  5519
STARLINK-36199          
1 67213U 25304X   26013.16672453 -.02389553  00000+0 -55449-1 0  9993
2 67213  69.9992 319.5350 0003577 264.0031 346.6201 15.45638989  5510
STARLINK-36203          
1 67214U 25304Y   26013.16672453 -.02042712  00000+0 -43596-1 0  9997
2 67214  70.0004 319.5189 0003044 266.7032 358.4001 15.48070075  5515
STARLINK-36221          
1 67215U 25304Z   26013.11775990 -.00372826  00000+0 -66014-2 0  9994
2 67215  70.0000 319.6453 0003397 269.8440  90.2357 15.51417708  5433
STARLINK-36212          
1 67216U 25304AA  26013.11720332  .00038421  00000+0  62405-3 0  9994
2 67216  70.0002 319.6432 0003349 274.7461  85.3343 15.52526687  5436
