CCSDS_OMM_VERS = 2.0
CREATION_DATE  = 
ORIGINATOR     = 

OBJECT_NAME    = STARLINK-36197
OBJECT_ID      = 2025-304P
CENTER_NAME    = EARTH
REF_FRAME      = TEME
TIME_SYSTEM    = UTC
MEAN_ELEMENT_THEORY = SGP/SGP4

EPOCH          = 2026-01-13T04:00:04.999392
MEAN_MOTION    = 15.45793041
ECCENTRICITY   = .0002694
INCLINATION    = 69.9998
RA_OF_ASC_NODE = 319.5501
ARG_OF_PERICENTER = 280.0610
MEAN_ANOMALY   = 318.3684

EPHEMERIS_TYPE = 0
CLASSIFICATION_TYPE = U
NORAD_CAT_ID   = 67205
ELEMENT_SET_NO = 999
REV_AT_EPOCH   = 548
BSTAR          = -.39135E-1
MEAN_MOTION_DOT = -.1698248E-1
MEAN_MOTION_DDOT = 0

CCSDS_OMM_VERS = 2.0
CREATION_DATE  = 
ORIGINATOR     = 

OBJECT_NAME    = STARLINK-36056
OBJECT_ID      = 2025-304Q
CENTER_NAME    = EARTH
REF_FRAME      = TEME
TIME_SYSTEM    = UTC
MEAN_ELEMENT_THEORY = SGP/SGP4

EPOCH          = 2026-01-13T02:53:48.799680
MEAN_MOTION    = 15.52083274
ECCENTRICITY   = .0003555
INCLINATION    = 70.0002
RA_OF_ASC_NODE = 319.6567
ARG_OF_PERICENTER = 278.5296
MEAN_ANOMALY   = 81.5488

EPHEMERIS_TYPE = 0
CLASSIFICATION_TYPE = U
NORAD_CAT_ID   = 67206
ELEMENT_SET_NO = 999
REV_AT_EPOCH   = 540
BSTAR          = -.42501E-2
MEAN_MOTION_DOT = -.249679E-2
MEAN_MOTION_DDOT = 0

CCSDS_OMM_VERS = 2.0
CREATION_DATE  = 
ORIGINATOR     = 

OBJECT_NAME    = STARLINK-36225
OBJECT_ID      = 2025-304R
CENTER_NAME    = EARTH
REF_FRAME      = TEME
TIME_SYSTEM    = UTC
MEAN_ELEMENT_THEORY = SGP/SGP4

EPOCH          = 2026-01-13T02:53:13.017120
MEAN_MOTION    = 15.52540787
ECCENTRICITY   = .0003494
INCLINATION    = 70.0003
RA_OF_ASC_NODE = 319.6551
ARG_OF_PERICENTER = 272.4180
MEAN_ANOMALY   = 87.6607

EPHEMERIS_TYPE = 0
CLASSIFICATION_TYPE = U
NORAD_CAT_ID   = 67207
ELEMENT_SET_NO = 999
REV_AT_EPOCH   = 543
BSTAR          = .6361E-3
MEAN_MOTION_DOT = .39191E-3
MEAN_MOTION_DDOT = 0

CCSDS_OMM_VERS = 2.0
CREATION_DATE  = 
ORIGINATOR     = 

OBJECT_NAME    = STARLINK-36265
OBJECT_ID      = 2025-304S
CENTER_NAME    = EARTH
REF_FRAME      = TEME
TIME_SYSTEM    = UTC
MEAN_ELEMENT_THEORY = SGP/SGP4

EPOCH          = 2026-01-13T03:41:03.773760
MEAN_MOTION    = 15.42720513
ECCENTRICITY   = .0003437
INCLINATION    = 70.0000
RA_OF_ASC_NODE = 319.7764
ARG_OF_PERICENTER = 270.7586
MEAN_ANOMALY   = 89.3202

EPHEMERIS_TYPE = 0
CLASSIFICATION_TYPE = U
NORAD_CAT_ID   = 67208
ELEMENT_SET_NO = 999
REV_AT_EPOCH   = 543
BSTAR          = .60749E-3
MEAN_MOTION_DOT = .26555E-3
MEAN_MOTION_DDOT = 0

CCSDS_OMM_VERS = 2.0
CREATION_DATE  = 
ORIGINATOR     = 

OBJECT_NAME    = STARLINK-36226
OBJECT_ID      = 2025-304T
CENTER_NAME    = EARTH
REF_FRAME      = TEME
TIME_SYSTEM    = UTC
MEAN_ELEMENT_THEORY = SGP/SGP4

EPOCH          = 2026-01-13T03:29:22.991136
MEAN_MOTION    = 15.42737375
ECCENTRICITY   = .0003463
INCLINATION    = 69.9999
RA_OF_ASC_NODE = 319.7467
ARG_OF_PERICENTER = 269.1947
MEAN_ANOMALY   = 90.8838

EPHEMERIS_TYPE = 0
CLASSIFICATION_TYPE = U
NORAD_CAT_ID   = 67209
ELEMENT_SET_NO = 999
REV_AT_EPOCH   = 543
BSTAR          = .77654E-3
MEAN_MOTION_DOT = .34038E-3
MEAN_MOTION_DDOT = 0

CCSDS_OMM_VERS = 2.0
CREATION_DATE  = 
ORIGINATOR     = 

OBJECT_NAME    = STARLINK-36173
OBJECT_ID      = 2025-304U
CENTER_NAME    = EARTH
REF_FRAME      = TEME
TIME_SYSTEM    = UTC
MEAN_ELEMENT_THEORY = SGP/SGP4

EPOCH          = 2026-01-13T04:00:04.999392
MEAN_MOTION    = 15.42705206
ECCENTRICITY   = .0002478
INCLINATION    = 70.0002
RA_OF_ASC_NODE = 319.6362
ARG_OF_PERICENTER = 279.1247
MEAN_ANOMALY   = 245.3036

EPHEMERIS_TYPE = 0
CLASSIFICATION_TYPE = U
NORAD_CAT_ID   = 67210
ELEMENT_SET_NO = 999
REV_AT_EPOCH   = 551
BSTAR          = .11496E-2
MEAN_MOTION_DOT = .50511E-3
MEAN_MOTION_DDOT = 0

CCSDS_OMM_VERS = 2.0
CREATION_DATE  = 
ORIGINATOR     = 

OBJECT_NAME    = STARLINK-36280
OBJECT_ID      = 2025-304V
CENTER_NAME    = EARTH
REF_FRAME      = TEME
TIME_SYSTEM    = UTC
MEAN_ELEMENT_THEORY = SGP/SGP4

EPOCH          = 2026-01-13T04:00:04.999392
MEAN_MOTION    = 15.42701749
ECCENTRICITY   = .0002801
INCLINATION    = 70.0001
RA_OF_ASC_NODE = 319.6115
ARG_OF_PERICENTER = 266.5087
MEAN_ANOMALY   = 279.9060

EPHEMERIS_TYPE = 0
CLASSIFICATION_TYPE = U
NORAD_CAT_ID   = 67211
ELEMENT_SET_NO = 999
REV_AT_EPOCH   = 551
BSTAR          = .13708E-2
MEAN_MOTION_DOT = .60328E-3
MEAN_MOTION_DDOT = 0

CCSDS_OMM_VERS = 2.0
CREATION_DATE  = 
ORIGINATOR     = 

OBJECT_NAME    = STARLINK-36213
OBJECT_ID      = 2025-304W
CENTER_NAME    = EARTH
REF_FRAME      = TEME
TIME_SYSTEM    = UTC
MEAN_ELEMENT_THEORY = SGP/SGP4

EPOCH          = 2026-01-13T04:00:04.999392
MEAN_MOTION    = 15.42693004
ECCENTRICITY   = .0002985
INCLINATION    = 69.9999
RA_OF_ASC_NODE = 319.5858
ARG_OF_PERICENTER = 270.0523
MEAN_ANOMALY   = 298.3964

EPHEMERIS_TYPE = 0
CLASSIFICATION_TYPE = U
NORAD_CAT_ID   = 67212
ELEMENT_SET_NO = 999
REV_AT_EPOCH   = 551
BSTAR          = .1149E-2
MEAN_MOTION_DOT = .50467E-3
MEAN_MOTION_DDOT = 0

CCSDS_OMM_VERS = 2.0
CREATION_DATE  = 
ORIGINATOR     = 

OBJECT_NAME    = STARLINK-36199
OBJECT_ID      = 2025-304X
CENTER_NAME    = EARTH
REF_FRAME      = TEME
TIME_SYSTEM    = UTC
MEAN_ELEMENT_THEORY = SGP/SGP4

EPOCH          = 2026-01-13T04:00:04.999392
MEAN_MOTION    = 15.45638989
ECCENTRICITY   = .0003577
INCLINATION    = 69.9992
RA_OF_ASC_NODE = 319.5350
ARG_OF_PERICENTER = 264.0031
MEAN_ANOMALY   = 346.6201

EPHEMERIS_TYPE = 0
CLASSIFICATION_TYPE = U
NORAD_CAT_ID   = 67213
ELEMENT_SET_NO = 999
REV_AT_EPOCH   = 551
BSTAR          = -.55449E-1
MEAN_MOTION_DOT = -.2389553E-1
MEAN_MOTION_DDOT = 0

CCSDS_OMM_VERS = 2.0
CREATION_DATE  = 
ORIGINATOR     = 

OBJECT_NAME    = STARLINK-36203
OBJECT_ID      = 2025-304Y
CENTER_NAME    = EARTH
REF_FRAME      = TEME
TIME_SYSTEM    = UTC
MEAN_ELEMENT_THEORY = SGP/SGP4

EPOCH          = 2026-01-13T04:00:04.999392
MEAN_MOTION    = 15.48070075
ECCENTRICITY   = .0003044
INCLINATION    = 70.0004
RA_OF_ASC_NODE = 319.5189
ARG_OF_PERICENTER = 266.7032
MEAN_ANOMALY   = 358.4001

EPHEMERIS_TYPE = 0
CLASSIFICATION_TYPE = U
NORAD_CAT_ID   = 67214
ELEMENT_SET_NO = 999
REV_AT_EPOCH   = 551
BSTAR          = -.43596E-1
MEAN_MOTION_DOT = -.2042712E-1
MEAN_MOTION_DDOT = 0

CCSDS_OMM_VERS = 2.0
CREATION_DATE  = 
ORIGINATOR     = 

OBJECT_NAME    = STARLINK-36221
OBJECT_ID      = 2025-304Z
CENTER_NAME    = EARTH
REF_FRAME      = TEME
TIME_SYSTEM    = UTC
MEAN_ELEMENT_THEORY = SGP/SGP4

EPOCH          = 2026-01-13T02:49:34.455360
MEAN_MOTION    = 15.51417708
ECCENTRICITY   = .0003397
INCLINATION    = 70.0000
RA_OF_ASC_NODE = 319.6453
ARG_OF_PERICENTER = 269.8440
MEAN_ANOMALY   = 90.2357

EPHEMERIS_TYPE = 0
CLASSIFICATION_TYPE = U
NORAD_CAT_ID   = 67215
ELEMENT_SET_NO = 999
REV_AT_EPOCH   = 543
BSTAR          = -.66014E-2
MEAN_MOTION_DOT = -.372826E-2
MEAN_MOTION_DDOT = 0

CCSDS_OMM_VERS = 2.0
CREATION_DATE  = 
ORIGINATOR     = 

OBJECT_NAME    = STARLINK-36212
OBJECT_ID      = 2025-304AA
CENTER_NAME    = EARTH
REF_FRAME      = TEME
TIME_SYSTEM    = UTC
MEAN_ELEMENT_THEORY = SGP/SGP4

EPOCH          = 2026-01-13T02:48:46.366848
MEAN_MOTION    = 15.52526687
ECCENTRICITY   = .0003349
INCLINATION    = 70.0002
RA_OF_ASC_NODE = 319.6432
ARG_OF_PERICENTER = 274.7461
MEAN_ANOMALY   = 85.3343

EPHEMERIS_TYPE = 0
CLASSIFICATION_TYPE = U
NORAD_CAT_ID   = 67216
ELEMENT_SET_NO = 999
REV_AT_EPOCH   = 543
BSTAR          = .62405E-3
MEAN_MOTION_DOT = .38421E-3
MEAN_MOTION_DDOT = 0

